{"spkid": "54249333", "covariance": {"labels": ["e", "q", "tp", "node", "peri", "i"], "elements": [{"title": "eccentricity", "value": ".6004493252467873", "units": null, "sigma": 1.02813187019438e-07, "name": "e", "label": "e"}, {"units": "au", "title": "perihelion distance", "value": ".8409973200361481", "name": "q", "sigma": 2.11189813233321e-07, "label": "q"}, {"units": "TDB", "value": "2459703.302051905060", "title": "time of perihelion passage", "name": "tp", "sigma": 1.26400492815287e-05, "label": "tp"}, {"label": "node", "value": "162.8091053194784", "title": "longitude of the ascending node", "units": "deg", "sigma": 2.37256167610465e-05, "name": "om"}, {"units": "deg", "title": "argument of perihelion", "value": "80.08533883685968", "name": "w", "sigma": 3.72547399247005e-05, "label": "peri"}, {"units": "deg", "title": "inclination", "value": "5.780065405212134", "sigma": 9.20618079284199e-06, "name": "i", "label": "i"}], "data": [["1.057055142509399E-14", "-2.170442014028183E-14", "1.137873367694107E-12", "7.272304433958468E-14", "2.847292789110684E-12", "-1.438708071064819E-13"], ["-2.170442014028183E-14", "4.460113721352492E-14", "-2.319562913129673E-12", "-1.504330539777901E-13", "-5.826999231318428E-12", "3.0584220256105E-13"], ["1.137873367694107E-12", "-2.319562913129673E-12", "1.597708458394753E-10", "-4.395130342096555E-13", "3.544916582187975E-10", "-5.743070630688442E-12"], ["7.272304433958468E-14", "-1.504330539777901E-13", "-4.395130342096555E-13", "5.629048906920489E-10", "-5.491153623786916E-10", "1.352151503414739E-10"], ["2.847292789110684E-12", "-5.826999231318428E-12", "3.544916582187975E-10", "-5.491153623786916E-10", "1.387915646857072E-9", "-1.598629187004171E-10"], ["-1.438708071064819E-13", "3.0584220256105E-13", "-5.743070630688442E-12", "1.352151503414739E-10", "-1.598629187004171E-10", "8.475376479049283E-11"]], "epoch": "2459918.5"}, "elements": [{"sigma": "1.0171E-7", "name": "e", "value": ".6032346606779877", "title": "eccentricity", "units": null, "label": "e"}, {"label": "a", "value": "2.100744248737608", "title": "semi-major axis", "units": "au", "name": "a", "sigma": "2.0194E-8"}, {"label": "q", "value": ".8335025046791427", "title": "perihelion distance", "units": "au", "sigma": "2.0821E-7", "name": "q"}, {"sigma": "9.189E-6", "name": "i", "units": "deg", "title": "inclination; angle with respect to x-y ecliptic plane", "value": "5.776488175241821", "label": "i"}, {"name": "om", "sigma": "2.3788E-5", "units": "deg", "title": "longitude of the ascending node", "value": "162.4867673156086", "label": "node"}, {"name": "w", "sigma": "3.6761E-5", "units": "deg", "value": "80.46117131472676", "title": "argument of perihelion", "label": "peri"}, {"units": "deg", "value": "123.773995960105", "title": "mean anomaly", "sigma": "9.571E-6", "name": "ma", "label": "M"}, {"units": "TDB", "value": "2460818.128853679237", "title": "time of perihelion passage", "sigma": "2.4182E-5", "name": "tp", "label": "tp"}, {"sigma": "1.6036E-5", "name": "per", "title": "sidereal orbital period", "value": "1112.136774834702", "units": "d", "label": "period"}, {"value": ".3237011922868095", "title": "mean motion", "units": "deg/d", "sigma": "4.6675E-9", "name": "n", "label": "n"}, {"label": "Q", "sigma": "3.2376E-8", "name": "ad", "units": "au", "title": "aphelion distance", "value": "3.367985992796072"}], "epoch": "2461200.5"}